[{"OBJECT_NAME":"GAOFEN-9 05","OBJECT_ID":"2020-058A","EPOCH":"2026-03-10T00:01:50.876256","MEAN_MOTION":15.30293976,"ECCENTRICITY":0.0010522,"INCLINATION":97.2228,"RA_OF_ASC_NODE":111.963,"ARG_OF_PERICENTER":91.0204,"MEAN_ANOMALY":269.2242,"EPHEMERIS_TYPE":0,"CLASSIFICATION_TYPE":"U","NORAD_CAT_ID":46232,"ELEMENT_SET_NO":999,"REV_AT_EPOCH":30843,"BSTAR":0.00025120304,"MEAN_MOTION_DOT":7.299e-5,"MEAN_MOTION_DDOT":0},{"OBJECT_NAME":"STARLINK-32561","OBJECT_ID":"2024-213U","EPOCH":"2026-03-09T13:08:46.977216","MEAN_MOTION":15.30190093,"ECCENTRICITY":9.245e-5,"INCLINATION":53.159,"RA_OF_ASC_NODE":168.7454,"ARG_OF_PERICENTER":85.2752,"MEAN_ANOMALY":274.8354,"EPHEMERIS_TYPE":0,"CLASSIFICATION_TYPE":"U","NORAD_CAT_ID":62026,"ELEMENT_SET_NO":999,"REV_AT_EPOCH":7313,"BSTAR":0.00096316878,"MEAN_MOTION_DOT":0.00028267,"MEAN_MOTION_DDOT":0}]
